[{"OBJECT_NAME":"FLOCK 4H-13","OBJECT_ID":"2025-276BC","EPOCH":"2026-03-09T18:22:51.517056","MEAN_MOTION":15.1947635,"ECCENTRICITY":7.13e-6,"INCLINATION":97.429,"RA_OF_ASC_NODE":144.1574,"ARG_OF_PERICENTER":66.765,"MEAN_ANOMALY":293.3593,"EPHEMERIS_TYPE":0,"CLASSIFICATION_TYPE":"U","NORAD_CAT_ID":66716,"ELEMENT_SET_NO":999,"REV_AT_EPOCH":1533,"BSTAR":0.00037410092,"MEAN_MOTION_DOT":7.871e-5,"MEAN_MOTION_DDOT":0},{"OBJECT_NAME":"BREEZE-M DEB [TANK]","OBJECT_ID":"2005-003C","EPOCH":"2026-03-09T14:26:34.622304","MEAN_MOTION":5.60309273,"ECCENTRICITY":0.5012168,"INCLINATION":49.5125,"RA_OF_ASC_NODE":207.2813,"ARG_OF_PERICENTER":139.2603,"MEAN_ANOMALY":271.8305,"EPHEMERIS_TYPE":0,"CLASSIFICATION_TYPE":"U","NORAD_CAT_ID":28528,"ELEMENT_SET_NO":999,"REV_AT_EPOCH":40661,"BSTAR":0.0015621,"MEAN_MOTION_DOT":9.841e-5,"MEAN_MOTION_DDOT":0}]
